STARLINK-4312           
1 53065U 22077Y   25211.45713808  .00000610  00000+0  52082-4 0  9991
2 53065  97.6596  32.4496 0002873  76.1231 284.0312 15.01258218167570
STARLINK-4309           
1 53066U 22077Z   25211.58335648 -.00040552  00000+0 -31688-2 0  9996
2 53066  97.6580  32.5828 0001883  38.1118 292.4488 15.01282921  5718
STARLINK-4325           
1 53068U 22077AB  25211.45898869  .00000202  00000+0  20292-4 0  9990
2 53068  97.6594  32.4418 0002795  66.4047 293.7470 15.01265906167579
STARLINK-4323           
1 53069U 22077AC  25211.78299085  .00000510  00000+0  44326-4 0  9998
2 53069  97.6582  32.7752 0002321  76.1670 283.9812 15.01261778168201
STARLINK-4342           
1 53070U 22077AD  25211.52193145  .00001024  00000+0  84293-4 0  9990
2 53070  97.6588  32.5147 0001377   8.1750 351.9496 15.01260678167581
STARLINK-4328           
1 53071U 22077AE  25211.51453211  .00000447  00000+0  39381-4 0  9999
2 53071  97.6579  32.5110 0002581  72.6340 287.5167 15.01259715167580
STARLINK-4344           
1 53072U 22077AF  25211.51082807  .00001406  00000+0  11401-3 0  9997
2 53072  97.6573  32.5252 0003243  67.4049 292.7518 15.01263010167587
STARLINK-4346           
1 53073U 22077AG  25211.48664302 -.00013532  00000+0 -85582-3 0  9996
2 53073  97.6478  33.4391 0003872 298.4178  61.6660 15.08921988167654
STARLINK-4310           
1 53074U 22077AH  25211.51823606  .00000600  00000+0  51290-4 0  9995
2 53074  97.6578  32.5044 0001879  89.2064 270.9375 15.01258831167589
STARLINK-4348           
1 53075U 22077AJ  25211.51267991  .00000846  00000+0  70465-4 0  9992
2 53075  97.6574  32.4976 0002860  65.2780 294.8742 15.01261780167589
STARLINK-4347           
1 53076U 22077AK  25211.51107653 -.00000237  00000+0 -13807-4 0  9994
2 53076  97.6575  32.5118 0003138  60.8129 299.3409 15.01267784167587
STARLINK-4322           
1 53078U 22077AM  25211.77558639  .00000185  00000+0  19029-4 0  9990
2 53078  97.6573  32.7691 0002937  67.6442 292.5094 15.01260794168203
STARLINK-4327           
1 53079U 22077AN  25211.50342346  .00000168  00000+0  17694-4 0  9995
2 53079  97.6566  32.4995 0002825  58.3187 301.8312 15.01259155167585
STARLINK-4330           
1 53080U 22077AP  25211.77372498  .00001024  00000+0  84267-4 0  9999
2 53080  97.6565  32.7660 0004231  41.1922 318.9620 15.01269624168201
STARLINK-4326           
1 53081U 22077AQ  25211.50735752  .00001852  00000+0  14867-3 0  9994
2 53081  97.6569  32.4878 0003941  60.9231 299.2387 15.01272787167588
STARLINK-4321           
1 53082U 22077AR  25211.50157154  .00000120  00000+0  13950-4 0  9999
2 53082  97.6566  32.4965 0003333  58.5127 301.6423 15.01260863167586
STARLINK-4251           
1 53083U 22077AS  25211.48862668  .00000784  00000+0  65593-4 0  9996
2 53083  97.6562  32.4727 0000441  35.4718 324.6535 15.01256184167586
STARLINK-4319           
1 53084U 22077AT  25211.49972091  .00000242  00000+0  23443-4 0  9997
2 53084  97.6565  32.4940 0003091  66.0338 294.1210 15.01259274167583
STARLINK-4324           
1 53085U 22077AU  25211.49440759  .00000649  00000+0  55080-4 0  9992
2 53085  97.6563  32.4900 0001513  62.7250 297.4128 15.01271597167587
STARLINK-4318           
1 53086U 22077AV  25211.49786901  .00000723  00000+0  60845-4 0  9993
2 53086  97.6564  32.4917 0002121  40.2158 319.9223 15.01263300167580
STARLINK-4329           
1 53087U 22077AW  25211.58335648  .00541418  00000+0  18077-2 0  9991
2 53087  97.6599  40.3129 0001671  64.6167 156.1096 15.88930923168656
STARLINK-4333           
1 53088U 22077AX  25211.49416244  .00000213  00000+0  21217-4 0  9999
2 53088  97.6562  32.4858 0001770  32.9471 327.1864 15.01260403167582
STARLINK-4063           
1 53132U 22083A   25211.82931327  .00000411  00000+0  43894-4 0  9992
2 53132  53.2182  90.0946 0001386  94.0905 266.0246 15.08834121168352
STARLINK-4150           
1 53134U 22083C   25211.83667335 -.00001191  00000+0 -56747-4 0  9999
2 53134  53.2179  90.0601 0001465  89.4292 270.6868 15.08832134168356
STARLINK-4023           
1 53135U 22083D   25211.38034897 -.00000774  00000+0 -30531-4 0  9990
2 53135  53.2178  92.1082 0001364  88.7632 271.3516 15.08843892168643
STARLINK-4152           
1 53136U 22083E   25211.84036611  .00002764  00000+0  19171-3 0  9993
2 53136  53.2184  90.0442 0001629  93.2172 266.9007 15.08834692168353
STARLINK-4145           
1 53137U 22083F   25211.83299197 -.00000239  00000+0  30525-5 0  9997
2 53137  53.2182  90.0790 0001420  97.5830 262.5323 15.08834847168350
STARLINK-4141           
1 53138U 22083G   25211.36795012  .00000268  00000+0  34932-4 0  9999
2 53138  53.2181  87.3466 0001697  90.7694 269.3493 15.08838384168496
STARLINK-4185           
1 53139U 22083H   25210.96082548  .00000246  00000+0  33539-4 0  9996
2 53139  53.2174  93.9893 0001348  89.8316 270.2831 15.08834293167591
STARLINK-4170           
1 53140U 22083J   25211.89188604 -.00000609  00000+0 -20167-4 0  9999
2 53140  53.2175  89.8094 0001698  89.0755 271.0432 15.08828227168360
STARLINK-4103           
1 53141U 22083K   25211.87346959 -.00000828  00000+0 -33921-4 0  9992
2 53141  53.2187  89.8914 0001565 101.2050 258.9118 15.08834221168369
STARLINK-4101           
1 53142U 22083L   25211.88176100  .00001751  00000+0  12805-3 0  9994
2 53142  53.2175  89.8272 0001299  84.8892 275.2248 15.08852324168368
STARLINK-4102           
1 53143U 22083M   25211.86979109 -.00000708  00000+0 -26422-4 0  9997
2 53143  53.2185  89.9093 0001543  99.1956 260.9211 15.08834808168362
STARLINK-4100           
1 53144U 22083N   25210.88722600  .00000194  00000+0  30268-4 0  9991
2 53144  53.2167  94.3254 0001449  95.7725 264.3432 15.08837614168218
STARLINK-4106           
1 53145U 22083P   25211.86243421 -.00000509  00000+0 -13893-4 0  9997
2 53145  53.2177  89.9441 0001648  88.0074 272.1107 15.08833328168361
STARLINK-4094           
1 53147U 22083R   25211.85874912  .00000077  00000+0  22952-4 0  9997
2 53147  53.2179  89.9597 0001370  89.4433 270.6716 15.08838856168363
STARLINK-4021           
1 53149U 22083T   25211.35648979  .00000509  00000+0  50055-4 0  9991
2 53149  53.2183  82.4201 0001357  85.3614 274.7534 15.08839001167793
STARLINK-4038           
1 53150U 22083U   25211.37758397  .00000235  00000+0  32853-4 0  9993
2 53150  53.2171  82.1201 0001310  90.1252 269.9890 15.08843118167795
STARLINK-4040           
1 53151U 22083V   25211.36654779  .00000594  00000+0  55384-4 0  9994
2 53151  53.2177  82.1697 0001351  84.4363 275.6783 15.08838038167795
STARLINK-4045           
1 53152U 22083W   25211.90382301  .00000365  00000+0  41031-4 0  9994
2 53152  53.2173  79.7560 0001371  90.5980 269.5170 15.08843618168500
STARLINK-4098           
1 53153U 22083X   25211.82655025  .00000709  00000+0  62660-4 0  9995
2 53153  53.2179  80.1047 0001429  88.6904 271.4252 15.08836211168493
STARLINK-4077           
1 53154U 22083Y   25211.37022757  .00000211  00000+0  31326-4 0  9999
2 53154  53.2178  82.1547 0001439  86.7444 273.3712 15.08839139167795
STARLINK-4088           
1 53155U 22083Z   25211.35550910  .00000322  00000+0  38338-4 0  9998
2 53155  53.2183  82.2193 0001850  92.7909 267.3295 15.08840301168434
STARLINK-4087           
1 53156U 22083AA  25211.01325356  .00000585  00000+0  54875-4 0  9991
2 53156  53.2178  83.6325 0001426  98.2201 261.8953 15.08836307167740
STARLINK-4093           
1 53157U 22083AB  25210.33267361  .00597706  19884-3  60273-3 0  9995
2 53157  53.2124  61.6191 0003090 277.3330  73.3263 16.10431368168610
STARLINK-4054           
1 53158U 22083AC  25211.35918759  .00000177  00000+0  29212-4 0  9999
2 53158  53.2178  82.2016 0001376  84.6678 275.4471 15.08839588167790
STARLINK-4111           
1 53159U 22083AD  25211.87071209  .00002832  00000+0  19588-3 0  9991
2 53159  53.2178  79.9050 0001329  99.6234 260.4908 15.08849005168508
STARLINK-4096           
1 53160U 22083AE  25211.88175260  .00001372  00000+0  10431-3 0  9992
2 53160  53.2191  79.8590 0001516  93.7287 266.3878 15.08827513168505
STARLINK-4055           
1 53161U 22083AF  25211.06478620 -.00002100  00000+0 -11385-3 0  9990
2 53161  53.2174  83.5218 0001507 118.7102 241.4041 15.08844272167753
STARLINK-4114           
1 53162U 22083AG  25211.34542627 -.00000442  00000+0 -96614-5 0  9998
2 53162  53.2172  82.2723 0001297  81.6790 278.4349 15.08839960167799
STARLINK-4104           
1 53163U 22083AH  25211.86705109 -.00000499  00000+0 -13290-4 0  9992
2 53163  53.2174  80.0646 0001288  94.6170 265.4969 15.08832927168508
STARLINK-4116           
1 53164U 22083AJ  25211.33342492 -.00000207  00000+0  50620-5 0  9992
2 53164  53.2174  82.3128 0001367  95.7965 264.3183 15.08839541167796
STARLINK-4090           
1 53165U 22083AK  25210.92126742  .00001203  00000+0  93662-4 0  9993
2 53165  53.2166  84.1687 0001468  92.5663 267.5497 15.08840452167730
STARLINK-4110           
1 53166U 22083AL  25211.91213155  .00000041  00000+0  20650-4 0  9995
2 53166  53.2168  79.6191 0001360  97.3582 262.7564 15.08838692168518
STARLINK-3683           
1 53167U 22083AM  25211.33664469  .00000503  00000+0  49705-4 0  9995
2 53167  53.2174  67.2947 0001392  84.9383 275.1768 15.08840293167999
STARLINK-4105           
1 53168U 22083AN  25211.05742413  .00000448  00000+0  46246-4 0  9996
2 53168  53.2171  83.5557 0001328  92.0825 268.0319 15.08840629167755
STARLINK-4117           
1 53169U 22083AP  25211.84451937  .00000376  00000+0  41690-4 0  9990
2 53169  53.2180  65.2826 0001301  89.1174 270.9968 15.08840655168704
STARLINK-4095           
1 53170U 22083AQ  25211.88036371  .00000626  00000+0  57425-4 0  9998
2 53170  53.2167  74.8142 0001268  84.2048 275.9088 15.08851674168572
STARLINK-4052           
1 53171U 22083AR  25211.85504340 -.00000599  00000+0 -19545-4 0  9994
2 53171  53.2179  49.7352 0001305  90.3750 269.7392 15.08832116168928
